date:2024-08-30T03:21:14+00:00
validtle:1
satid:46686
launchyear:2020
epoch:24160.62730618
epochday:160
tleage:83
tleclassification:U
active:0
name:STARLINK-1783
meananomly:186.0218
meanmotion:16.2333
rightascension:0.0000
declination:0.0000
semimajoraxis:6588.6703172036
altitudeatperigee:209
altitudeatapogee:212
inclination:53.0447
eccentricity:0.0002354
argumentofperigree:313.0057
nickname:STARLINK-1783
idesg:20073S  
cosparid:2020-073S
altkm:214.04525962758
velkms:7.7815364978758
velkmh:28014
onumepoch:20155
onumnow:328521.21
otype:99
otypedesc:Reentry
status:99
timestamp:2024-06-08T15:03:19+00:00
nowjuliandate:2460552.6397486
nowepochdate:24243.1397453704
TLE:
STARLINK-1783
1 46686U 20073S   24160.62730618  .11860947  11933-4  45736-2 0  9992
2 46686  53.0447 211.0661 0002354 313.0057 186.0218 16.23328042201555